<?xml version="1.0" encoding="UTF-8"?>
<ndm xmlns:xsi="http://www.w3.org/2001/XMLSchema-instance" xsi:noNamespaceSchemaLocation="https://sanaregistry.org/r/ndmxml_unqualified/ndmxml-2.0.0-master-2.0.xsd">
<omm id="CCSDS_OMM_VERS" version="2.0">
<header><CREATION_DATE/><ORIGINATOR/></header><body><segment><metadata><OBJECT_NAME>ONEWEB-0264</OBJECT_NAME><OBJECT_ID>2021-060R</OBJECT_ID><CENTER_NAME>EARTH</CENTER_NAME><REF_FRAME>TEME</REF_FRAME><TIME_SYSTEM>UTC</TIME_SYSTEM><MEAN_ELEMENT_THEORY>SGP4</MEAN_ELEMENT_THEORY></metadata><data><meanElements><EPOCH>2024-02-19T21:45:00.355968</EPOCH><MEAN_MOTION>13.16594041</MEAN_MOTION><ECCENTRICITY>.000195</ECCENTRICITY><INCLINATION>87.9066</INCLINATION><RA_OF_ASC_NODE>37.6065</RA_OF_ASC_NODE><ARG_OF_PERICENTER>84.1164</ARG_OF_PERICENTER><MEAN_ANOMALY>276.0189</MEAN_ANOMALY></meanElements><tleParameters><EPHEMERIS_TYPE>0</EPHEMERIS_TYPE><CLASSIFICATION_TYPE>U</CLASSIFICATION_TYPE><NORAD_CAT_ID>48982</NORAD_CAT_ID><ELEMENT_SET_NO>999</ELEMENT_SET_NO><REV_AT_EPOCH>12797</REV_AT_EPOCH><BSTAR>-.13726E-3</BSTAR><MEAN_MOTION_DOT>-.4E-6</MEAN_MOTION_DOT><MEAN_MOTION_DDOT>0</MEAN_MOTION_DDOT></tleParameters></data></segment></body></omm>
<omm id="CCSDS_OMM_VERS" version="2.0">
<header><CREATION_DATE/><ORIGINATOR/></header><body><segment><metadata><OBJECT_NAME>ONEWEB-0267</OBJECT_NAME><OBJECT_ID>2021-060U</OBJECT_ID><CENTER_NAME>EARTH</CENTER_NAME><REF_FRAME>TEME</REF_FRAME><TIME_SYSTEM>UTC</TIME_SYSTEM><MEAN_ELEMENT_THEORY>SGP4</MEAN_ELEMENT_THEORY></metadata><data><meanElements><EPOCH>2024-02-20T00:21:10.627776</EPOCH><MEAN_MOTION>13.16594153</MEAN_MOTION><ECCENTRICITY>.0002264</ECCENTRICITY><INCLINATION>87.9061</INCLINATION><RA_OF_ASC_NODE>37.5665</RA_OF_ASC_NODE><ARG_OF_PERICENTER>81.2302</ARG_OF_PERICENTER><MEAN_ANOMALY>278.9085</MEAN_ANOMALY></meanElements><tleParameters><EPHEMERIS_TYPE>0</EPHEMERIS_TYPE><CLASSIFICATION_TYPE>U</CLASSIFICATION_TYPE><NORAD_CAT_ID>48985</NORAD_CAT_ID><ELEMENT_SET_NO>999</ELEMENT_SET_NO><REV_AT_EPOCH>12927</REV_AT_EPOCH><BSTAR>.21542E-3</BSTAR><MEAN_MOTION_DOT>.95E-6</MEAN_MOTION_DOT><MEAN_MOTION_DDOT>0</MEAN_MOTION_DDOT></tleParameters></data></segment></body></omm>
<omm id="CCSDS_OMM_VERS" version="2.0">
<header><CREATION_DATE/><ORIGINATOR/></header><body><segment><metadata><OBJECT_NAME>ONEWEB-0268</OBJECT_NAME><OBJECT_ID>2021-060V</OBJECT_ID><CENTER_NAME>EARTH</CENTER_NAME><REF_FRAME>TEME</REF_FRAME><TIME_SYSTEM>UTC</TIME_SYSTEM><MEAN_ELEMENT_THEORY>SGP4</MEAN_ELEMENT_THEORY></metadata><data><meanElements><EPOCH>2024-02-19T23:35:34.103040</EPOCH><MEAN_MOTION>13.16595740</MEAN_MOTION><ECCENTRICITY>.0002058</ECCENTRICITY><INCLINATION>87.9064</INCLINATION><RA_OF_ASC_NODE>37.5790</RA_OF_ASC_NODE><ARG_OF_PERICENTER>87.1806</ARG_OF_PERICENTER><MEAN_ANOMALY>272.9560</MEAN_ANOMALY></meanElements><tleParameters><EPHEMERIS_TYPE>0</EPHEMERIS_TYPE><CLASSIFICATION_TYPE>U</CLASSIFICATION_TYPE><NORAD_CAT_ID>48986</NORAD_CAT_ID><ELEMENT_SET_NO>999</ELEMENT_SET_NO><REV_AT_EPOCH>12953</REV_AT_EPOCH><BSTAR>-.66775E-4</BSTAR><MEAN_MOTION_DOT>-.13E-6</MEAN_MOTION_DOT><MEAN_MOTION_DDOT>0</MEAN_MOTION_DDOT></tleParameters></data></segment></body></omm>
<omm id="CCSDS_OMM_VERS" version="2.0">
<header><CREATION_DATE/><ORIGINATOR/></header><body><segment><metadata><OBJECT_NAME>ONEWEB-0269</OBJECT_NAME><OBJECT_ID>2021-060W</OBJECT_ID><CENTER_NAME>EARTH</CENTER_NAME><REF_FRAME>TEME</REF_FRAME><TIME_SYSTEM>UTC</TIME_SYSTEM><MEAN_ELEMENT_THEORY>SGP4</MEAN_ELEMENT_THEORY></metadata><data><meanElements><EPOCH>2024-02-20T04:36:32.370048</EPOCH><MEAN_MOTION>13.16594874</MEAN_MOTION><ECCENTRICITY>.0001862</ECCENTRICITY><INCLINATION>87.9068</INCLINATION><RA_OF_ASC_NODE>37.5594</RA_OF_ASC_NODE><ARG_OF_PERICENTER>88.8427</ARG_OF_PERICENTER><MEAN_ANOMALY>271.2917</MEAN_ANOMALY></meanElements><tleParameters><EPHEMERIS_TYPE>0</EPHEMERIS_TYPE><CLASSIFICATION_TYPE>U</CLASSIFICATION_TYPE><NORAD_CAT_ID>48987</NORAD_CAT_ID><ELEMENT_SET_NO>999</ELEMENT_SET_NO><REV_AT_EPOCH>12934</REV_AT_EPOCH><BSTAR>.1203E-3</BSTAR><MEAN_MOTION_DOT>.59E-6</MEAN_MOTION_DOT><MEAN_MOTION_DDOT>0</MEAN_MOTION_DDOT></tleParameters></data></segment></body></omm>
<omm id="CCSDS_OMM_VERS" version="2.0">
<header><CREATION_DATE/><ORIGINATOR/></header><body><segment><metadata><OBJECT_NAME>ONEWEB-0270</OBJECT_NAME><OBJECT_ID>2021-060X</OBJECT_ID><CENTER_NAME>EARTH</CENTER_NAME><REF_FRAME>TEME</REF_FRAME><TIME_SYSTEM>UTC</TIME_SYSTEM><MEAN_ELEMENT_THEORY>SGP4</MEAN_ELEMENT_THEORY></metadata><data><meanElements><EPOCH>2024-02-19T21:43:50.135232</EPOCH><MEAN_MOTION>13.16597181</MEAN_MOTION><ECCENTRICITY>.0002086</ECCENTRICITY><INCLINATION>87.9063</INCLINATION><RA_OF_ASC_NODE>37.6042</RA_OF_ASC_NODE><ARG_OF_PERICENTER>68.4958</ARG_OF_PERICENTER><MEAN_ANOMALY>291.6395</MEAN_ANOMALY></meanElements><tleParameters><EPHEMERIS_TYPE>0</EPHEMERIS_TYPE><CLASSIFICATION_TYPE>U</CLASSIFICATION_TYPE><NORAD_CAT_ID>48988</NORAD_CAT_ID><ELEMENT_SET_NO>999</ELEMENT_SET_NO><REV_AT_EPOCH>12804</REV_AT_EPOCH><BSTAR>.38727E-4</BSTAR><MEAN_MOTION_DOT>.28E-6</MEAN_MOTION_DOT><MEAN_MOTION_DDOT>0</MEAN_MOTION_DDOT></tleParameters></data></segment></body></omm>
<omm id="CCSDS_OMM_VERS" version="2.0">
<header><CREATION_DATE/><ORIGINATOR/></header><body><segment><metadata><OBJECT_NAME>ONEWEB-0271</OBJECT_NAME><OBJECT_ID>2021-060Y</OBJECT_ID><CENTER_NAME>EARTH</CENTER_NAME><REF_FRAME>TEME</REF_FRAME><TIME_SYSTEM>UTC</TIME_SYSTEM><MEAN_ELEMENT_THEORY>SGP4</MEAN_ELEMENT_THEORY></metadata><data><meanElements><EPOCH>2024-02-20T04:43:21.912960</EPOCH><MEAN_MOTION>13.16594640</MEAN_MOTION><ECCENTRICITY>.000218</ECCENTRICITY><INCLINATION>87.9066</INCLINATION><RA_OF_ASC_NODE>37.5213</RA_OF_ASC_NODE><ARG_OF_PERICENTER>77.0432</ARG_OF_PERICENTER><MEAN_ANOMALY>283.0942</MEAN_ANOMALY></meanElements><tleParameters><EPHEMERIS_TYPE>0</EPHEMERIS_TYPE><CLASSIFICATION_TYPE>U</CLASSIFICATION_TYPE><NORAD_CAT_ID>48989</NORAD_CAT_ID><ELEMENT_SET_NO>999</ELEMENT_SET_NO><REV_AT_EPOCH>12937</REV_AT_EPOCH><BSTAR>.76222E-4</BSTAR><MEAN_MOTION_DOT>.42E-6</MEAN_MOTION_DOT><MEAN_MOTION_DDOT>0</MEAN_MOTION_DDOT></tleParameters></data></segment></body></omm>
<omm id="CCSDS_OMM_VERS" version="2.0">
<header><CREATION_DATE/><ORIGINATOR/></header><body><segment><metadata><OBJECT_NAME>ONEWEB-0272</OBJECT_NAME><OBJECT_ID>2021-060Z</OBJECT_ID><CENTER_NAME>EARTH</CENTER_NAME><REF_FRAME>TEME</REF_FRAME><TIME_SYSTEM>UTC</TIME_SYSTEM><MEAN_ELEMENT_THEORY>SGP4</MEAN_ELEMENT_THEORY></metadata><data><meanElements><EPOCH>2024-02-19T21:57:32.652864</EPOCH><MEAN_MOTION>13.16593849</MEAN_MOTION><ECCENTRICITY>.0002126</ECCENTRICITY><INCLINATION>87.9064</INCLINATION><RA_OF_ASC_NODE>37.6046</RA_OF_ASC_NODE><ARG_OF_PERICENTER>80.6249</ARG_OF_PERICENTER><MEAN_ANOMALY>279.5122</MEAN_ANOMALY></meanElements><tleParameters><EPHEMERIS_TYPE>0</EPHEMERIS_TYPE><CLASSIFICATION_TYPE>U</CLASSIFICATION_TYPE><NORAD_CAT_ID>48990</NORAD_CAT_ID><ELEMENT_SET_NO>999</ELEMENT_SET_NO><REV_AT_EPOCH>12799</REV_AT_EPOCH><BSTAR>-.39811E-4</BSTAR><MEAN_MOTION_DOT>-.2E-7</MEAN_MOTION_DOT><MEAN_MOTION_DDOT>0</MEAN_MOTION_DDOT></tleParameters></data></segment></body></omm>

</ndm>
