ONEWEB-0264             
1 48982U 21060R   24050.90625412 -.00000040  00000+0 -13726-3 0  9997
2 48982  87.9066  37.6065 0001950  84.1164 276.0189 13.16594041127978
ONEWEB-0267             
1 48985U 21060U   24051.01470634  .00000095  00000+0  21542-3 0  9990
2 48985  87.9061  37.5665 0002264  81.2302 278.9085 13.16594153129277
ONEWEB-0268             
1 48986U 21060V   24050.98303360 -.00000013  00000+0 -66775-4 0  9997
2 48986  87.9064  37.5790 0002058  87.1806 272.9560 13.16595740129539
ONEWEB-0269             
1 48987U 21060W   24051.19204132  .00000059  00000+0  12030-3 0  9991
2 48987  87.9068  37.5594 0001862  88.8427 271.2917 13.16594874129349
ONEWEB-0270             
1 48988U 21060X   24050.90544138  .00000028  00000+0  38727-4 0  9991
2 48988  87.9063  37.6042 0002086  68.4958 291.6395 13.16597181128042
ONEWEB-0271             
1 48989U 21060Y   24051.19678140  .00000042  00000+0  76222-4 0  9993
2 48989  87.9066  37.5213 0002180  77.0432 283.0942 13.16594640129370
ONEWEB-0272             
1 48990U 21060Z   24050.91496126 -.00000002  00000+0 -39811-4 0  9997
2 48990  87.9064  37.6046 0002126  80.6249 279.5122 13.16593849127997
